{
  "type": "FeatureCollection",
  "features": [
    {
      "type": "Feature",
      "properties": {
        "norad_id": 30674,
        "name": "FENGYUN 1C DEB",
        "group": "fengyun-1c-debris",
        "lat": 62.668991195585754,
        "lon": -3.8898222345351003,
        "alt_km": 587.8710321742883,
        "timestamp": "2025-12-20T11:30:28.654978+00:00",
        "meta_object_name": "FENGYUN 1C DEB",
        "meta_object_id": "1999-025AQG",
        "meta_epoch": "2025-12-19T10:55:22.251360",
        "meta_mean_motion": 14.96636685,
        "meta_eccentricity": 0.0025542,
        "meta_inclination": 98.9378,
        "meta_ra_of_asc_node": 157.2122,
        "meta_arg_of_pericenter": 282.83,
        "meta_mean_anomaly": 77.0064,
        "meta_ephemeris_type": 0,
        "meta_classification_type": "U",
        "meta_norad_cat_id": 30674,
        "meta_element_set_no": 999,
        "meta_rev_at_epoch": 97452,
        "meta_bstar": 0.0045529,
        "meta_mean_motion_dot": 0.00052542,
        "meta_mean_motion_ddot": 0,
        "tle_line1": "1 30674U 99025AQG 25353.45511865  .00052542  00000+0  45529-2 0  9992",
        "tle_line2": "2 30674  98.9378 157.2122 0025542 282.8300  77.0064 14.96636685974522"
      },
      "geometry": {
        "type": "Point",
        "coordinates": [
          -3.8898222345351003,
          62.668991195585754
        ]
      }
    },
    {
      "type": "Feature",
      "properties": {
        "norad_id": 30675,
        "name": "FENGYUN 1C DEB",
        "group": "fengyun-1c-debris",
        "lat": 67.08608728370585,
        "lon": 52.2370254515018,
        "alt_km": 785.7252916991083,
        "timestamp": "2025-12-20T11:30:28.654988+00:00",
        "meta_object_name": "FENGYUN 1C DEB",
        "meta_object_id": "1999-025AQH",
        "meta_epoch": "2025-12-20T04:35:47.167296",
        "meta_mean_motion": 14.27456539,
        "meta_eccentricity": 0.0053887,
        "meta_inclination": 98.7548,
        "meta_ra_of_asc_node": 73.329,
        "meta_arg_of_pericenter": 148.066,
        "meta_mean_anomaly": 242.2729,
        "meta_ephemeris_type": 0,
        "meta_classification_type": "U",
        "meta_norad_cat_id": 30675,
        "meta_element_set_no": 999,
        "meta_rev_at_epoch": 96998,
        "meta_bstar": 0.0010281,
        "meta_mean_motion_dot": 2.519e-05,
        "meta_mean_motion_ddot": 0,
        "tle_line1": "1 30675U 99025AQH 25354.19151814  .00002519  00000+0  10281-2 0  9995",
        "tle_line2": "2 30675  98.7548  73.3290 0053887 148.0660 242.2729 14.27456539969989"
      },
      "geometry": {
        "type": "Point",
        "coordinates": [
          52.2370254515018,
          67.08608728370585
        ]
      }
    },
    {
      "type": "Feature",
      "properties": {
        "norad_id": 30676,
        "name": "FENGYUN 1C DEB",
        "group": "fengyun-1c-debris",
        "lat": -29.987384853133978,
        "lon": -175.81982752926226,
        "alt_km": 793.4523800125926,
        "timestamp": "2025-12-20T11:30:28.654997+00:00",
        "meta_object_name": "FENGYUN 1C DEB",
        "meta_object_id": "1999-025AQJ",
        "meta_epoch": "2025-12-19T23:24:40.774752",
        "meta_mean_motion": 13.73929912,
        "meta_eccentricity": 0.0472114,
        "meta_inclination": 98.2658,
        "meta_ra_of_asc_node": 178.9304,
        "meta_arg_of_pericenter": 28.7016,
        "meta_mean_anomaly": 333.9265,
        "meta_ephemeris_type": 0,
        "meta_classification_type": "U",
        "meta_norad_cat_id": 30676,
        "meta_element_set_no": 999,
        "meta_rev_at_epoch": 94023,
        "meta_bstar": 0.00049134,
        "meta_mean_motion_dot": 1e-05,
        "meta_mean_motion_ddot": 0,
        "tle_line1": "1 30676U 99025AQJ 25353.97547193  .00001000  00000+0  49134-3 0  9994",
        "tle_line2": "2 30676  98.2658 178.9304 0472114  28.7016 333.9265 13.73929912940232"
      },
      "geometry": {
        "type": "Point",
        "coordinates": [
          -175.81982752926226,
          -29.987384853133978
        ]
      }
    },
    {
      "type": "Feature",
      "properties": {
        "norad_id": 30677,
        "name": "FENGYUN 1C DEB",
        "group": "fengyun-1c-debris",
        "lat": 11.993440990443116,
        "lon": 37.51335892279438,
        "alt_km": 812.3465623446737,
        "timestamp": "2025-12-20T11:30:28.655007+00:00",
        "meta_object_name": "FENGYUN 1C DEB",
        "meta_object_id": "1999-025AQK",
        "meta_epoch": "2025-12-20T01:43:47.692128",
        "meta_mean_motion": 14.38192827,
        "meta_eccentricity": 0.0066536,
        "meta_inclination": 98.2534,
        "meta_ra_of_asc_node": 38.8888,
        "meta_arg_of_pericenter": 182.2292,
        "meta_mean_anomaly": 241.9705,
        "meta_ephemeris_type": 0,
        "meta_classification_type": "U",
        "meta_norad_cat_id": 30677,
        "meta_element_set_no": 999,
        "meta_rev_at_epoch": 98085,
        "meta_bstar": 0.00074192,
        "meta_mean_motion_dot": 2.27e-05,
        "meta_mean_motion_ddot": 0,
        "tle_line1": "1 30677U 99025AQK 25354.07207977  .00002270  00000+0  74192-3 0  9992",
        "tle_line2": "2 30677  98.2534  38.8888 0066536 182.2292 241.9705 14.38192827980854"
      },
      "geometry": {
        "type": "Point",
        "coordinates": [
          37.51335892279438,
          11.993440990443116
        ]
      }
    },
    {
      "type": "Feature",
      "properties": {
        "norad_id": 30678,
        "name": "FENGYUN 1C DEB",
        "group": "fengyun-1c-debris",
        "lat": -12.334996781741399,
        "lon": 133.49112053840898,
        "alt_km": 766.0161611446192,
        "timestamp": "2025-12-20T11:30:28.655017+00:00",
        "meta_object_name": "FENGYUN 1C DEB",
        "meta_object_id": "1999-025AQL",
        "meta_epoch": "2025-12-19T09:54:33.676992",
        "meta_mean_motion": 14.24247135,
        "meta_eccentricity": 0.0071238,
        "meta_inclination": 99.0794,
        "meta_ra_of_asc_node": 314.3935,
        "meta_arg_of_pericenter": 211.1049,
        "meta_mean_anomaly": 275.72,
        "meta_ephemeris_type": 0,
        "meta_classification_type": "U",
        "meta_norad_cat_id": 30678,
        "meta_element_set_no": 999,
        "meta_rev_at_epoch": 95970,
        "meta_bstar": 0.0020104,
        "meta_mean_motion_dot": 4.717e-05,
        "meta_mean_motion_ddot": 0,
        "tle_line1": "1 30678U 99025AQL 25353.41288978  .00004717  00000+0  20104-2 0  9991",
        "tle_line2": "2 30678  99.0794 314.3935 0071238 211.1049 275.7200 14.24247135959707"
      },
      "geometry": {
        "type": "Point",
        "coordinates": [
          133.49112053840898,
          -12.334996781741399
        ]
      }
    },
    {
      "type": "Feature",
      "properties": {
        "norad_id": 30679,
        "name": "FENGYUN 1C DEB",
        "group": "fengyun-1c-debris",
        "lat": 21.037206472306774,
        "lon": -130.19337902608007,
        "alt_km": 984.7427403794854,
        "timestamp": "2025-12-20T11:30:28.655027+00:00",
        "meta_object_name": "FENGYUN 1C DEB",
        "meta_object_id": "1999-025AQM",
        "meta_epoch": "2025-12-20T02:12:06.315264",
        "meta_mean_motion": 13.79725071,
        "meta_eccentricity": 0.0171288,
        "meta_inclination": 99.3808,
        "meta_ra_of_asc_node": 45.7771,
        "meta_arg_of_pericenter": 59.4149,
        "meta_mean_anomaly": 332.2316,
        "meta_ephemeris_type": 0,
        "meta_classification_type": "U",
        "meta_norad_cat_id": 30679,
        "meta_element_set_no": 999,
        "meta_rev_at_epoch": 94621,
        "meta_bstar": 0.00050268,
        "meta_mean_motion_dot": 5.37e-06,
        "meta_mean_motion_ddot": 0,
        "tle_line1": "1 30679U 99025AQM 25354.09173976  .00000537  00000+0  50268-3 0  9999",
        "tle_line2": "2 30679  99.3808  45.7771 0171288  59.4149 332.2316 13.79725071946218"
      },
      "geometry": {
        "type": "Point",
        "coordinates": [
          -130.19337902608007,
          21.037206472306774
        ]
      }
    },
    {
      "type": "Feature",
      "properties": {
        "norad_id": 30680,
        "name": "FENGYUN 1C DEB",
        "group": "fengyun-1c-debris",
        "lat": 75.93843687952877,
        "lon": -5.741508985807406,
        "alt_km": 944.7336891841023,
        "timestamp": "2025-12-20T11:30:28.655037+00:00",
        "meta_object_name": "FENGYUN 1C DEB",
        "meta_object_id": "1999-025AQN",
        "meta_epoch": "2025-12-19T20:56:37.181184",
        "meta_mean_motion": 13.56167108,
        "meta_eccentricity": 0.0337927,
        "meta_inclination": 99.6297,
        "meta_ra_of_asc_node": 36.3378,
        "meta_arg_of_pericenter": 150.1589,
        "meta_mean_anomaly": 211.9298,
        "meta_ephemeris_type": 0,
        "meta_classification_type": "U",
        "meta_norad_cat_id": 30680,
        "meta_element_set_no": 999,
        "meta_rev_at_epoch": 92350,
        "meta_bstar": 0.0031957,
        "meta_mean_motion_dot": 3.199e-05,
        "meta_mean_motion_ddot": 0,
        "tle_line1": "1 30680U 99025AQN 25353.87265256  .00003199  00000+0  31957-2 0  9999",
        "tle_line2": "2 30680  99.6297  36.3378 0337927 150.1589 211.9298 13.56167108923500"
      },
      "geometry": {
        "type": "Point",
        "coordinates": [
          -5.741508985807406,
          75.93843687952877
        ]
      }
    }
  ]
}